{
  "type": "FeatureCollection",
  "features": [
    {
      "type": "Feature",
      "properties": {
        "norad_id": 38867,
        "name": "INTELSAT 23 (IS-23)",
        "group": "intelsat",
        "lat": -0.02846091705240591,
        "lon": -70.49667924858102,
        "alt_km": 35784.087224573304,
        "timestamp": "2025-12-21T16:47:54.396747+00:00",
        "meta_object_name": "INTELSAT 23 (IS-23)",
        "meta_object_id": "2012-057A",
        "meta_epoch": "2025-12-21T11:13:59.042208",
        "meta_mean_motion": 1.00269242,
        "meta_eccentricity": 6.59e-05,
        "meta_inclination": 0.0169,
        "meta_ra_of_asc_node": 64.9752,
        "meta_arg_of_pericenter": 235.2005,
        "meta_mean_anomaly": 265.6301,
        "meta_ephemeris_type": 0,
        "meta_classification_type": "U",
        "meta_norad_cat_id": 38867,
        "meta_element_set_no": 999,
        "meta_rev_at_epoch": 4817,
        "meta_bstar": 0,
        "meta_mean_motion_dot": -2.62e-06,
        "meta_mean_motion_ddot": 0,
        "tle_line1": "1 38867U 12057A   25355.46804447 -.00000262  00000+0  00000+0 0  9993",
        "tle_line2": "2 38867   0.0169  64.9752 0000659 235.2005 265.6301  1.00269242 48179"
      },
      "geometry": {
        "type": "Point",
        "coordinates": [
          -70.49667924858102,
          -0.02846091705240591
        ]
      }
    },
    {
      "type": "Feature",
      "properties": {
        "norad_id": 39360,
        "name": "FM-6",
        "group": "intelsat",
        "lat": -0.006035752153023213,
        "lon": -133.64551841792658,
        "alt_km": 35776.7705477667,
        "timestamp": "2025-12-21T16:47:54.396758+00:00",
        "meta_object_name": "FM-6",
        "meta_object_id": "2013-058A",
        "meta_epoch": "2025-12-21T10:49:59.562048",
        "meta_mean_motion": 1.00273303,
        "meta_eccentricity": 0.0003048,
        "meta_inclination": 0.0117,
        "meta_ra_of_asc_node": 65.8213,
        "meta_arg_of_pericenter": 114.5077,
        "meta_mean_anomaly": 316.2838,
        "meta_ephemeris_type": 0,
        "meta_classification_type": "U",
        "meta_norad_cat_id": 39360,
        "meta_element_set_no": 999,
        "meta_rev_at_epoch": 4429,
        "meta_bstar": 0,
        "meta_mean_motion_dot": 5e-08,
        "meta_mean_motion_ddot": 0,
        "tle_line1": "1 39360U 13058A   25355.45138382  .00000005  00000+0  00000+0 0  9995",
        "tle_line2": "2 39360   0.0117  65.8213 0003048 114.5077 316.2838  1.00273303 44296"
      },
      "geometry": {
        "type": "Point",
        "coordinates": [
          -133.64551841792658,
          -0.006035752153023213
        ]
      }
    },
    {
      "type": "Feature",
      "properties": {
        "norad_id": 40271,
        "name": "INTELSAT 30 (IS-30)",
        "group": "intelsat",
        "lat": -0.03275098651019999,
        "lon": -112.55698754209924,
        "alt_km": 35792.50701445685,
        "timestamp": "2025-12-21T16:47:54.396770+00:00",
        "meta_object_name": "INTELSAT 30 (IS-30)",
        "meta_object_id": "2014-062A",
        "meta_epoch": "2025-12-21T02:28:25.779360",
        "meta_mean_motion": 1.00271873,
        "meta_eccentricity": 0.00016539,
        "meta_inclination": 0.0153,
        "meta_ra_of_asc_node": 22.7027,
        "meta_arg_of_pericenter": 68.3073,
        "meta_mean_anomaly": 300.9758,
        "meta_ephemeris_type": 0,
        "meta_classification_type": "U",
        "meta_norad_cat_id": 40271,
        "meta_element_set_no": 999,
        "meta_rev_at_epoch": 500,
        "meta_bstar": 0,
        "meta_mean_motion_dot": -1.28e-06,
        "meta_mean_motion_ddot": 0,
        "tle_line1": "1 40271U 14062A   25355.10307615 -.00000128  00000+0  00000+0 0  9990",
        "tle_line2": "2 40271   0.0153  22.7027 0001653  68.3073 300.9758  1.00271873  5003"
      },
      "geometry": {
        "type": "Point",
        "coordinates": [
          -112.55698754209924,
          -0.03275098651019999
        ]
      }
    },
    {
      "type": "Feature",
      "properties": {
        "norad_id": 40333,
        "name": "DIRECTV 14",
        "group": "intelsat",
        "lat": -0.023669870938210037,
        "lon": -116.73343844906188,
        "alt_km": 35786.95460186904,
        "timestamp": "2025-12-21T16:47:54.396781+00:00",
        "meta_object_name": "DIRECTV 14",
        "meta_object_id": "2014-078B",
        "meta_epoch": "2025-12-21T11:54:52.390944",
        "meta_mean_motion": 1.00270511,
        "meta_eccentricity": 2.6e-05,
        "meta_inclination": 0.0008,
        "meta_ra_of_asc_node": 6.7961,
        "meta_arg_of_pericenter": 119.3735,
        "meta_mean_anomaly": 43.6445,
        "meta_ephemeris_type": 0,
        "meta_classification_type": "U",
        "meta_norad_cat_id": 40333,
        "meta_element_set_no": 999,
        "meta_rev_at_epoch": 4026,
        "meta_bstar": 0,
        "meta_mean_motion_dot": -1.03e-06,
        "meta_mean_motion_ddot": 0,
        "tle_line1": "1 40333U 14078B   25355.49643971 -.00000103  00000+0  00000+0 0  9999",
        "tle_line2": "2 40333   0.0008   6.7961 0000260 119.3735  43.6445  1.00270511 40264"
      },
      "geometry": {
        "type": "Point",
        "coordinates": [
          -116.73343844906188,
          -0.023669870938210037
        ]
      }
    },
    {
      "type": "Feature",
      "properties": {
        "norad_id": 40663,
        "name": "DIRECTV 15",
        "group": "intelsat",
        "lat": -0.0365742989468394,
        "lon": -120.3941090604793,
        "alt_km": 35786.93911426512,
        "timestamp": "2025-12-21T16:47:54.396793+00:00",
        "meta_object_name": "DIRECTV 15",
        "meta_object_id": "2015-026A",
        "meta_epoch": "2025-12-21T08:19:00.875424",
        "meta_mean_motion": 1.00269643,
        "meta_eccentricity": 3.3e-05,
        "meta_inclination": 0.0248,
        "meta_ra_of_asc_node": 19.5507,
        "meta_arg_of_pericenter": 120.1507,
        "meta_mean_anomaly": 332.3403,
        "meta_ephemeris_type": 0,
        "meta_classification_type": "U",
        "meta_norad_cat_id": 40663,
        "meta_element_set_no": 999,
        "meta_rev_at_epoch": 3868,
        "meta_bstar": 0,
        "meta_mean_motion_dot": 0,
        "meta_mean_motion_ddot": 0,
        "tle_line1": "1 40663U 15026A   25355.34653791  .00000000  00000+0  00000+0 0  9999",
        "tle_line2": "2 40663   0.0248  19.5507 0000330 120.1507 332.3403  1.00269643 38688"
      },
      "geometry": {
        "type": "Point",
        "coordinates": [
          -120.3941090604793,
          -0.0365742989468394
        ]
      }
    },
    {
      "type": "Feature",
      "properties": {
        "norad_id": 40664,
        "name": "SKY MEXICO-1",
        "group": "intelsat",
        "lat": -0.04168074221956311,
        "lon": -96.28647330457025,
        "alt_km": 35776.98581643028,
        "timestamp": "2025-12-21T16:47:54.396832+00:00",
        "meta_object_name": "SKY MEXICO-1",
        "meta_object_id": "2015-026B",
        "meta_epoch": "2025-12-21T11:12:10.593792",
        "meta_mean_motion": 1.00271533,
        "meta_eccentricity": 0.000236,
        "meta_inclination": 0.0152,
        "meta_ra_of_asc_node": 354.0207,
        "meta_arg_of_pericenter": 292.9365,
        "meta_mean_anomaly": 252.6132,
        "meta_ephemeris_type": 0,
        "meta_classification_type": "U",
        "meta_norad_cat_id": 40664,
        "meta_element_set_no": 999,
        "meta_rev_at_epoch": 3867,
        "meta_bstar": 0,
        "meta_mean_motion_dot": -2.12e-06,
        "meta_mean_motion_ddot": 0,
        "tle_line1": "1 40664U 15026B   25355.46678928 -.00000212  00000+0  00000+0 0  9998",
        "tle_line2": "2 40664   0.0152 354.0207 0002360 292.9365 252.6132  1.00271533 38675"
      },
      "geometry": {
        "type": "Point",
        "coordinates": [
          -96.28647330457025,
          -0.04168074221956311
        ]
      }
    },
    {
      "type": "Feature",
      "properties": {
        "norad_id": 40874,
        "name": "INTELSAT 34 (IS-34)",
        "group": "intelsat",
        "lat": -0.025467566418816673,
        "lon": -73.01170300133425,
        "alt_km": 35788.22629261085,
        "timestamp": "2025-12-21T16:47:54.396846+00:00",
        "meta_object_name": "INTELSAT 34 (IS-34)",
        "meta_object_id": "2015-039A",
        "meta_epoch": "2025-12-21T04:31:38.456256",
        "meta_mean_motion": 1.00270737,
        "meta_eccentricity": 5.67e-05,
        "meta_inclination": 0.0114,
        "meta_ra_of_asc_node": 322.9713,
        "meta_arg_of_pericenter": 185.716,
        "meta_mean_anomaly": 313.7366,
        "meta_ephemeris_type": 0,
        "meta_classification_type": "U",
        "meta_norad_cat_id": 40874,
        "meta_element_set_no": 999,
        "meta_rev_at_epoch": 3784,
        "meta_bstar": 0,
        "meta_mean_motion_dot": -2.62e-06,
        "meta_mean_motion_ddot": 0,
        "tle_line1": "1 40874U 15039A   25355.18863954 -.00000262  00000+0  00000+0 0  9994",
        "tle_line2": "2 40874   0.0114 322.9713 0000567 185.7160 313.7366  1.00270737 37842"
      },
      "geometry": {
        "type": "Point",
        "coordinates": [
          -73.01170300133425,
          -0.025467566418816673
        ]
      }
    }
  ]
}